[{"OBJECT_NAME":"STARLINK-34286","OBJECT_ID":"2025-161W","EPOCH":"2026-03-09T21:50:20.934528","MEAN_MOTION":15.30240937,"ECCENTRICITY":9.405e-5,"INCLINATION":53.1564,"RA_OF_ASC_NODE":293.1737,"ARG_OF_PERICENTER":62.4593,"MEAN_ANOMALY":297.6503,"EPHEMERIS_TYPE":0,"CLASSIFICATION_TYPE":"U","NORAD_CAT_ID":65035,"ELEMENT_SET_NO":999,"REV_AT_EPOCH":3426,"BSTAR":0.0017070651,"MEAN_MOTION_DOT":0.00050608,"MEAN_MOTION_DDOT":0},{"OBJECT_NAME":"FENGYUN 1C DEB","OBJECT_ID":"1999-025AQG","EPOCH":"2026-03-09T10:43:06.043872","MEAN_MOTION":15.25746961,"ECCENTRICITY":0.00178142,"INCLINATION":98.9311,"RA_OF_ASC_NODE":250.2123,"ARG_OF_PERICENTER":328.3876,"MEAN_ANOMALY":31.6286,"EPHEMERIS_TYPE":0,"CLASSIFICATION_TYPE":"U","NORAD_CAT_ID":30674,"ELEMENT_SET_NO":999,"REV_AT_EPOCH":98658,"BSTAR":0.015201752,"MEAN_MOTION_DOT":0.00411052,"MEAN_MOTION_DDOT":0}]
